CCSDS_OMM_VERS = 2.0
CREATION_DATE  = 
ORIGINATOR     = 

OBJECT_NAME    = SL-3 R/B
OBJECT_ID      = 1988-032B
CENTER_NAME    = EARTH
REF_FRAME      = TEME
TIME_SYSTEM    = UTC
MEAN_ELEMENT_THEORY = SGP/SGP4

EPOCH          = 2026-03-21T13:58:40.411488
MEAN_MOTION    = 15.20034782
ECCENTRICITY   = .00255222
INCLINATION    = 97.5210
RA_OF_ASC_NODE = 63.7933
ARG_OF_PERICENTER = 188.3927
MEAN_ANOMALY   = 171.6885

EPHEMERIS_TYPE = 0
CLASSIFICATION_TYPE = U
NORAD_CAT_ID   = 19046
ELEMENT_SET_NO = 999
REV_AT_EPOCH   = 5391
BSTAR          = .28593089E-3
MEAN_MOTION_DOT = .6147E-4
MEAN_MOTION_DDOT = 0

CCSDS_OMM_VERS = 2.0
CREATION_DATE  = 
ORIGINATOR     = 

OBJECT_NAME    = SL-16 R/B
OBJECT_ID      = 1988-039B
CENTER_NAME    = EARTH
REF_FRAME      = TEME
TIME_SYSTEM    = UTC
MEAN_ELEMENT_THEORY = SGP/SGP4

EPOCH          = 2026-03-21T14:33:33.347808
MEAN_MOTION    = 14.19617761
ECCENTRICITY   = .00233477
INCLINATION    = 71.0154
RA_OF_ASC_NODE = 43.3473
ARG_OF_PERICENTER = 317.1390
MEAN_ANOMALY   = 42.7915

EPHEMERIS_TYPE = 0
CLASSIFICATION_TYPE = U
NORAD_CAT_ID   = 19120
ELEMENT_SET_NO = 999
REV_AT_EPOCH   = 96007
BSTAR          = -.36985708E-4
MEAN_MOTION_DOT = -.127E-5
MEAN_MOTION_DDOT = 0

CCSDS_OMM_VERS = 2.0
CREATION_DATE  = 
ORIGINATOR     = 

OBJECT_NAME    = COSMOS 1953
OBJECT_ID      = 1988-050A
CENTER_NAME    = EARTH
REF_FRAME      = TEME
TIME_SYSTEM    = UTC
MEAN_ELEMENT_THEORY = SGP/SGP4

EPOCH          = 2026-03-21T14:31:01.365024
MEAN_MOTION    = 15.28707911
ECCENTRICITY   = .00126575
INCLINATION    = 82.5083
RA_OF_ASC_NODE = 146.2630
ARG_OF_PERICENTER = 85.3613
MEAN_ANOMALY   = 274.9072

EPHEMERIS_TYPE = 0
CLASSIFICATION_TYPE = U
NORAD_CAT_ID   = 19210
ELEMENT_SET_NO = 999
REV_AT_EPOCH   = 3960
BSTAR          = .3295847E-3
MEAN_MOTION_DOT = .9252E-4
MEAN_MOTION_DDOT = 0

CCSDS_OMM_VERS = 2.0
CREATION_DATE  = 
ORIGINATOR     = 

OBJECT_NAME    = SL-8 R/B
OBJECT_ID      = 1988-053B
CENTER_NAME    = EARTH
REF_FRAME      = TEME
TIME_SYSTEM    = UTC
MEAN_ELEMENT_THEORY = SGP/SGP4

EPOCH          = 2026-03-21T11:39:42.420960
MEAN_MOTION    = 14.38923655
ECCENTRICITY   = .00215401
INCLINATION    = 74.0450
RA_OF_ASC_NODE = 90.7204
ARG_OF_PERICENTER = 268.4666
MEAN_ANOMALY   = 205.5772

EPHEMERIS_TYPE = 0
CLASSIFICATION_TYPE = U
NORAD_CAT_ID   = 19257
ELEMENT_SET_NO = 999
REV_AT_EPOCH   = 97829
BSTAR          = .11072232E-3
MEAN_MOTION_DOT = .316E-5
MEAN_MOTION_DDOT = 0

CCSDS_OMM_VERS = 2.0
CREATION_DATE  = 
ORIGINATOR     = 

OBJECT_NAME    = COSMOS 1975
OBJECT_ID      = 1988-093A
CENTER_NAME    = EARTH
REF_FRAME      = TEME
TIME_SYSTEM    = UTC
MEAN_ELEMENT_THEORY = SGP/SGP4

EPOCH          = 2026-03-21T13:50:37.203072
MEAN_MOTION    = 15.28220029
ECCENTRICITY   = .00131052
INCLINATION    = 82.5160
RA_OF_ASC_NODE = 105.7484
ARG_OF_PERICENTER = 124.6727
MEAN_ANOMALY   = 235.5750

EPHEMERIS_TYPE = 0
CLASSIFICATION_TYPE = U
NORAD_CAT_ID   = 19573
ELEMENT_SET_NO = 999
REV_AT_EPOCH   = 2122
BSTAR          = .27013404E-3
MEAN_MOTION_DOT = .7478E-4
MEAN_MOTION_DDOT = 0

CCSDS_OMM_VERS = 2.0
CREATION_DATE  = 
ORIGINATOR     = 

OBJECT_NAME    = SL-14 R/B
OBJECT_ID      = 1988-093B
CENTER_NAME    = EARTH
REF_FRAME      = TEME
TIME_SYSTEM    = UTC
MEAN_ELEMENT_THEORY = SGP/SGP4

EPOCH          = 2026-03-21T14:30:30.054528
MEAN_MOTION    = 14.85670452
ECCENTRICITY   = .00207652
INCLINATION    = 82.5329
RA_OF_ASC_NODE = 30.8597
ARG_OF_PERICENTER = 3.2803
MEAN_ANOMALY   = 170.2082

EPHEMERIS_TYPE = 0
CLASSIFICATION_TYPE = U
NORAD_CAT_ID   = 19574
ELEMENT_SET_NO = 999
REV_AT_EPOCH   = 278
BSTAR          = .61495068E-4
MEAN_MOTION_DOT = .559E-5
MEAN_MOTION_DDOT = 0

CCSDS_OMM_VERS = 2.0
CREATION_DATE  = 
ORIGINATOR     = 

OBJECT_NAME    = SL-16 R/B
OBJECT_ID      = 1988-102B
CENTER_NAME    = EARTH
REF_FRAME      = TEME
TIME_SYSTEM    = UTC
MEAN_ELEMENT_THEORY = SGP/SGP4

EPOCH          = 2026-03-21T13:25:55.035264
MEAN_MOTION    = 14.16155551
ECCENTRICITY   = .00148007
INCLINATION    = 70.9986
RA_OF_ASC_NODE = 126.5225
ARG_OF_PERICENTER = 343.1373
MEAN_ANOMALY   = 16.9256

EPHEMERIS_TYPE = 0
CLASSIFICATION_TYPE = U
NORAD_CAT_ID   = 19650
ELEMENT_SET_NO = 999
REV_AT_EPOCH   = 92857
BSTAR          = -.71162155E-4
MEAN_MOTION_DOT = -.189E-5
MEAN_MOTION_DDOT = 0

CCSDS_OMM_VERS = 2.0
CREATION_DATE  = 
ORIGINATOR     = 

OBJECT_NAME    = INTERCOSMOS 24
OBJECT_ID      = 1989-080A
CENTER_NAME    = EARTH
REF_FRAME      = TEME
TIME_SYSTEM    = UTC
MEAN_ELEMENT_THEORY = SGP/SGP4

EPOCH          = 2026-03-21T11:29:33.886752
MEAN_MOTION    = 12.59574068
ECCENTRICITY   = .11867115
INCLINATION    = 82.6016
RA_OF_ASC_NODE = 96.7251
ARG_OF_PERICENTER = 265.4286
MEAN_ANOMALY   = 81.0626

EPHEMERIS_TYPE = 0
CLASSIFICATION_TYPE = U
NORAD_CAT_ID   = 20261
ELEMENT_SET_NO = 999
REV_AT_EPOCH   = 66828
BSTAR          = .16798851E-3
MEAN_MOTION_DOT = .565E-5
MEAN_MOTION_DDOT = 0

CCSDS_OMM_VERS = 2.0
CREATION_DATE  = 
ORIGINATOR     = 

OBJECT_NAME    = SL-14 R/B
OBJECT_ID      = 1989-080C
CENTER_NAME    = EARTH
REF_FRAME      = TEME
TIME_SYSTEM    = UTC
MEAN_ELEMENT_THEORY = SGP/SGP4

EPOCH          = 2026-03-21T03:48:26.098560
MEAN_MOTION    = 12.50505429
ECCENTRICITY   = .12308261
INCLINATION    = 82.5967
RA_OF_ASC_NODE = 165.8267
ARG_OF_PERICENTER = 158.5457
MEAN_ANOMALY   = 207.2223

EPHEMERIS_TYPE = 0
CLASSIFICATION_TYPE = U
NORAD_CAT_ID   = 20262
ELEMENT_SET_NO = 999
REV_AT_EPOCH   = 66158
BSTAR          = .11010744E-3
MEAN_MOTION_DOT = .39E-5
MEAN_MOTION_DDOT = 0

CCSDS_OMM_VERS = 2.0
CREATION_DATE  = 
ORIGINATOR     = 

OBJECT_NAME    = DELTA 1 R/B
OBJECT_ID      = 1989-089B
CENTER_NAME    = EARTH
REF_FRAME      = TEME
TIME_SYSTEM    = UTC
MEAN_ELEMENT_THEORY = SGP/SGP4

EPOCH          = 2026-03-21T13:17:12.818976
MEAN_MOTION    = 14.50672840
ECCENTRICITY   = .00707044
INCLINATION    = 97.0696
RA_OF_ASC_NODE = 286.1045
ARG_OF_PERICENTER = 85.2308
MEAN_ANOMALY   = 275.6960

EPHEMERIS_TYPE = 0
CLASSIFICATION_TYPE = U
NORAD_CAT_ID   = 20323
ELEMENT_SET_NO = 999
REV_AT_EPOCH   = 89745
BSTAR          = .93577672E-4
MEAN_MOTION_DOT = .345E-5
MEAN_MOTION_DDOT = 0

CCSDS_OMM_VERS = 2.0
CREATION_DATE  = 
ORIGINATOR     = 

OBJECT_NAME    = ARIANE 40 R/B
OBJECT_ID      = 1990-005H
CENTER_NAME    = EARTH
REF_FRAME      = TEME
TIME_SYSTEM    = UTC
MEAN_ELEMENT_THEORY = SGP/SGP4

EPOCH          = 2026-03-21T03:22:23.826720
MEAN_MOTION    = 14.39877284
ECCENTRICITY   = .00105709
INCLINATION    = 98.3058
RA_OF_ASC_NODE = 140.4595
ARG_OF_PERICENTER = 164.1162
MEAN_ANOMALY   = 196.0360

EPHEMERIS_TYPE = 0
CLASSIFICATION_TYPE = U
NORAD_CAT_ID   = 20443
ELEMENT_SET_NO = 999
REV_AT_EPOCH   = 89445
BSTAR          = .76508593E-4
MEAN_MOTION_DOT = .198E-5
MEAN_MOTION_DDOT = 0

CCSDS_OMM_VERS = 2.0
CREATION_DATE  = 
ORIGINATOR     = 

OBJECT_NAME    = DELTA 2 R/B(1)
OBJECT_ID      = 1990-008B
CENTER_NAME    = EARTH
REF_FRAME      = TEME
TIME_SYSTEM    = UTC
MEAN_ELEMENT_THEORY = SGP/SGP4

EPOCH          = 2026-03-21T10:21:12.912480
MEAN_MOTION    = 15.57426832
ECCENTRICITY   = .00809056
INCLINATION    = 35.6026
RA_OF_ASC_NODE = 97.7047
ARG_OF_PERICENTER = 7.6483
MEAN_ANOMALY   = 352.5469

EPHEMERIS_TYPE = 0
CLASSIFICATION_TYPE = U
NORAD_CAT_ID   = 20453
ELEMENT_SET_NO = 999
REV_AT_EPOCH   = 92796
BSTAR          = .94669166E-3
MEAN_MOTION_DOT = .84489E-3
MEAN_MOTION_DDOT = 0

